STARLINK-2022           
1 47643U 21012Z   24063.56711649  .00005452  00000+0  38444-3 0  9995
2 47643  53.0524 116.1988 0001495  85.0988 275.0172 15.06415567168791
